ELECTRON KICK STAGE R/B 
1 67229U 25307B   25358.25415701  .00479646  67632-4  15718-2 0  9999
2 67229  42.0009 105.7955 0246612 257.7279  99.5854 15.55468037   469
ELECTRON R/B            
1 67230U 25307C   25355.36249005  .00071881  81069-5  20248-3 0  9997
2 67230  41.9820 123.1026 0261408 268.1410  88.9482 15.55087105    19
